{
    "links": {
        "self": "http://www.neowsapp.com/rest/v1/neo/3830885?api_key=iIulBulltgU6a56xZRHN4H3l9WmuAYTsLGpBGhQ2"
    },
    "id": "3830885",
    "neo_reference_id": "3830885",
    "name": "(2018 SM2)",
    "designation": "2018 SM2",
    "nasa_jpl_url": "http://ssd.jpl.nasa.gov/sbdb.cgi?sstr=3830885",
    "absolute_magnitude_h": 23.0,
    "estimated_diameter": {
        "kilometers": {
            "estimated_diameter_min": 0.0667659413,
            "estimated_diameter_max": 0.1492931834
        },
        "meters": {
            "estimated_diameter_min": 66.7659413495,
            "estimated_diameter_max": 149.2931834393
        },
        "miles": {
            "estimated_diameter_min": 0.0414864197,
            "estimated_diameter_max": 0.0927664547
        },
        "feet": {
            "estimated_diameter_min": 219.0483710172,
            "estimated_diameter_max": 489.807047955
        }
    },
    "is_potentially_hazardous_asteroid": false,
    "close_approach_data": [
        {
            "close_approach_date": "2018-10-10",
            "close_approach_date_full": "2018-Oct-10 01:12",
            "epoch_date_close_approach": 1539133920000,
            "relative_velocity": {
                "kilometers_per_second": "10.0996993519",
                "kilometers_per_hour": "36358.9176669631",
                "miles_per_hour": "22592.0174803416"
            },
            "miss_distance": {
                "astronomical": "0.0291524924",
                "lunar": "11.3403195436",
                "kilometers": "4361150.768231188",
                "miles": "2709893.4279508744"
            },
            "orbiting_body": "Earth"
        }
    ],
    "orbital_data": {
        "orbit_id": "2",
        "orbit_determination_date": "2018-10-05 06:30:35",
        "first_observation_date": "2018-09-29",
        "last_observation_date": "2018-10-02",
        "data_arc_in_days": 3,
        "observations_used": 24,
        "orbit_uncertainty": "9",
        "minimum_orbit_intersection": ".0131806",
        "jupiter_tisserand_invariant": "3.344",
        "epoch_osculation": "2458391.5",
        "eccentricity": ".5978557134051341",
        "semi_major_axis": "2.278642382571695",
        "inclination": "2.25953175246182",
        "ascending_node_longitude": "209.7555860669924",
        "orbital_period": "1256.355899176734",
        "perihelion_distance": ".9163430153441198",
        "perihelion_argument": "199.4315324951641",
        "aphelion_distance": "3.64094174979927",
        "perihelion_time": "2458426.450792073855",
        "mean_anomaly": "349.985094864574",
        "mean_motion": ".2865430092188855",
        "equinox": "J2000",
        "orbit_class": {
            "orbit_class_type": "APO",
            "orbit_class_description": "Near-Earth asteroid orbits which cross the Earth’s orbit similar to that of 1862 Apollo",
            "orbit_class_range": "a (semi-major axis) > 1.0 AU; q (perihelion) < 1.017 AU"
        }
    },
    "is_sentry_object": false
}